[{"OBJECT_NAME":"STARLINK-1553","OBJECT_ID":"2020-062Z","EPOCH":"2026-03-09T21:21:38.690496","MEAN_MOTION":15.36665572,"ECCENTRICITY":0.00049977,"INCLINATION":53.0381,"RA_OF_ASC_NODE":305.9588,"ARG_OF_PERICENTER":144.0342,"MEAN_ANOMALY":216.0997,"EPHEMERIS_TYPE":0,"CLASSIFICATION_TYPE":"U","NORAD_CAT_ID":46348,"ELEMENT_SET_NO":999,"REV_AT_EPOCH":30532,"BSTAR":0.00060638819,"MEAN_MOTION_DOT":0.00021714,"MEAN_MOTION_DDOT":0},{"OBJECT_NAME":"KUIPER-00144","OBJECT_ID":"2025-301A","EPOCH":"2026-03-09T04:46:22.555488","MEAN_MOTION":15.38335313,"ECCENTRICITY":0.00079737,"INCLINATION":51.8709,"RA_OF_ASC_NODE":67.4364,"ARG_OF_PERICENTER":24.6117,"MEAN_ANOMALY":335.525,"EPHEMERIS_TYPE":0,"CLASSIFICATION_TYPE":"U","NORAD_CAT_ID":67133,"ELEMENT_SET_NO":999,"REV_AT_EPOCH":1366,"BSTAR":0.0010007311,"MEAN_MOTION_DOT":0.00038249,"MEAN_MOTION_DDOT":0}]
